IRIDIUM 63              
1 25286U 98021B   25129.45066497  .00000576  00000+0  18950-3 0  9996
2 25286  86.3947  98.3834 0002434  85.1070 275.0405 14.36515618418557
IRIDIUM 69              
1 25319U 98026A   25129.44309300  .00000608  00000+0  18337-3 0  9995
2 25319  86.3939 111.7970 0003977 120.2054 239.9540 14.40931137417722
IRIDIUM 71              
1 25320U 98026B   25129.45510172  .00000624  00000+0  18760-3 0  9997
2 25320  86.3937 106.4879 0002031 146.7388 213.3939 14.41126030418261
IRIDIUM 73              
1 25344U 98032C   25129.32360820  .00000840  00000+0  20433-3 0  9999
2 25344  86.4419  63.3184 0002908  94.5336 265.6202 14.51671077425223
IRIDIUM 82              
1 25467U 98051A   25128.94983763  .00028306  00000+0  84630-3 0  9996
2 25467  86.3649 129.0034 0092211  86.0903 275.0882 15.30227088417956
